OPS 6582 (TRANSIT 5B-5) 
1 00965U 64083D   22287.53988779  .00000067  00000+0  81592-4 0  9999
2 00965  90.0342 195.8092 0039197 239.7833 294.8884 13.56790141861665
OSCAR 7 (AO-7)          
1 07530U 74089B   22287.74657545 -.00000041  00000+0  30570-4 0  9991
2 07530 101.9200 268.0509 0012115 171.9507   3.0282 12.53657663192652
UOSAT 2 (UO-11)         
1 14781U 84021B   22287.47917400  .00001697  00000+0  21046-3 0  9997
2 14781  97.6303 269.5727 0006912 295.7549  64.2952 14.83881104 57691
NOAA 9                  
1 15427U 84123A   22287.84544772  .00000170  00000+0  10882-3 0  9998
2 15427  99.0606 262.1839 0014639 183.2795 215.9996 14.16232754953744
LUSAT (LO-19)           
1 20442U 90005G   22287.49248618  .00000220  00000+0  96901-4 0  9991
2 20442  98.8097 254.2568 0011744 174.1227 186.0097 14.33097904710153
ITAMSAT (IO-26)         
1 22826U 93061D   22287.09214152  .00000124  00000+0  65407-4 0  9996
2 22826  98.8716 320.4555 0009840  56.6531 303.5591 14.30548751515377
RADIO ROSTO (RS-15)     
1 23439U 94085A   22287.86248527 -.00000039  00000+0  10000-3 0  9996
2 23439  64.8212 312.4861 0168082 252.1430 106.1104 11.27572958144956
JAS-2 (FO-29)           
1 24278U 96046B   22287.48068524 -.00000019  00000+0  18173-4 0  9990
2 24278  98.5153 294.7852 0349875 334.6048  23.8248 13.53122388291709
NOAA 15                 
1 25338U 98030A   22287.82906777  .00000164  00000+0  86804-4 0  9998
2 25338  98.6354 315.7567 0009499 313.6862  46.3530 14.26182542270287
TECHSAT 1B (GO-32)      
1 25397U 98043D   22287.47604017  .00000126  00000+0  74936-4 0  9991
2 25397  98.8313 238.3251 0002257 107.0898 253.0527 14.23778440260364
ISS (ZARYA)             
1 25544U 98067A   22287.73395616  .00015277  00000+0  27471-3 0  9996
2 25544  51.6422 104.3123 0003273 302.9418 167.8363 15.50041295363725
ORSTED                  
1 25635U 99008B   22287.51071103  .00000737  00000+0  18107-3 0  9992
2 25635  96.4465 124.4906 0138508 160.5429 200.1131 14.48562600247518
PHASE 3D (AO-40)        
1 26609U 00072B   22287.21076770 -.00000080  00000+0  00000+0 0  9990
2 26609   5.5742 241.0371 7975472  67.7036 354.3376  1.25588805100640
PCSAT (NO-44)           
1 26931U 01043C   22287.78063885  .00000182  00000+0  10125-3 0  9997
2 26931  67.0495 110.3865 0005471 259.5075 100.5410 14.30745900 98638
SAUDISAT 1C (SO-50)     
1 27607U 02058C   22287.48443816  .00001640  00000+0  24354-3 0  9997
2 27607  64.5538 297.6037 0081664 271.7649  87.4102 14.76319652 65940
CUTE-1 (CO-55)          
1 27844U 03031E   22287.51127826  .00000393  00000+0  19570-3 0  9994
2 27844  98.6811 293.4153 0010876 114.6959 245.5353 14.22514511   805
CUBESAT XI-IV (CO-57)   
1 27848U 03031J   22287.01909938  .00000306  00000+0  15803-3 0  9994
2 27848  98.6854 293.4239 0010585 129.1669 231.0451 14.22062418   518
MOZHAYETS 4 (RS-22)     
1 27939U 03042A   22287.72523346  .00001662  00000+0  30154-3 0  9992
2 27939  98.2099  68.5417 0012622 186.5324 173.5713 14.67536151 18535
INMARSAT 4-F1           
1 28628U 05009A   22287.57284490 -.00000260  00000+0  00000+0 0  9997
2 28628   3.7009  36.2363 0003091 178.1501 158.4575  1.00272334 64216
NOAA 18                 
1 28654U 05018A   22287.61302885  .00000239  00000+0  15250-3 0  9992
2 28654  98.9385 357.8958 0014058 358.9447   1.1693 14.12790156896898
CUBESAT XI-V            
1 28895U 05043F   22287.33883060  .00001896  00000+0  36546-3 0  9996
2 28895  98.1232  57.0055 0017600 124.9946 235.2912 14.64563839904815
METOP-A                 
1 29499U 06044A   22287.50145161  .00001704  00000+0  23323-3 0  9998
2 29499  98.4385 335.8359 0197141 355.1042 140.0056 14.67477317828136
CARTOSAT-2 (IRS-P7)     
1 29710U 07001B   22287.30734552  .00021139  00000+0  48045-3 0  9996
2 29710  97.8739  40.0015 0140536 359.9842   0.1370 15.33214550854426
FALCONSAT-3             
1 30776U 07006E   22287.46424514  .00119071  00000+0  11708-2 0  9994
2 30776  35.4271 195.5368 0004209 268.3367  91.6886 15.64655081868151
CAPE-1                  
1 31130U 07012P   22287.51008078  .00001897  00000+0  40533-3 0  9990
2 31130  98.2780 227.2985 0093481 284.7531  74.3323 14.57338442822436
CARTOSAT-2A             
1 32783U 08021A   22287.72133074  .00000728  00000+0  10628-3 0  9998
2 32783  97.9523 346.6674 0013481 139.3137 220.9073 14.78678269780646
CUTE-1.7+APD II (CO-65) 
1 32785U 08021C   22287.44839390  .00003797  00000+0  39852-3 0  9992
2 32785  97.6727 254.6416 0012125 191.6933 168.4005 14.90034521784277
COMPASS-1               
1 32787U 08021E   22287.49478130  .00008465  00000+0  74486-3 0  9999
2 32787  97.5762 265.5414 0013946 104.3591 255.9180 14.96673947785857
AAUSAT-II               
1 32788U 08021F   22287.67882472  .00009005  00000+0  75609-3 0  9997
2 32788  97.5450 268.9106 0012301  83.9764 276.2860 14.98492888786380
DELFI-C3 (DO-64)        
1 32789U 08021G   22287.50232679  .00024538  00000+0  12524-2 0  9992
2 32789  97.3318 309.6576 0007648 266.7863  93.2495 15.16681432789958
SEEDS II (CO-66)        
1 32791U 08021J   22287.87919556  .00006245  00000+0  59986-3 0  9990
2 32791  97.6266 260.4323 0013742 144.6232 215.5903 14.93324926785096
YUBILEINY (RS-30)       
1 32953U 08025A   22287.81472392  .00000024  00000+0  10000-3 0  9993
2 32953  82.4974 109.7133 0019566   1.6115 358.5021 12.43113969653167
FENGYUN 3A              
1 32958U 08026A   22287.65556555  .00000178  00000+0  10605-3 0  9996
2 32958  98.5183 245.4946 0009605  43.8009 316.3927 14.18749274745230
PRISM (HITOMI)          
1 33493U 09002B   22287.72968442  .00009538  00000+0  75089-3 0  9992
2 33493  98.2476 281.2317 0015259 141.5291 218.7022 15.00956318746871
STARS (KUKAI)           
1 33498U 09002G   22287.29873229  .00002346  00000+0  31480-3 0  9994
2 33498  98.1516 181.2355 0009452 223.7786 136.2676 14.80315876739013
KKS-1 (KISEKI)          
1 33499U 09002H   22287.81943701  .00001359  00000+0  20419-3 0  9999
2 33499  98.1983 171.7389 0007789 298.5249  61.5175 14.76190401738280
NOAA 19                 
1 33591U 09005A   22287.76952492  .00000184  00000+0  12444-3 0  9990
2 33591  99.1369 324.3543 0013472 209.5432 150.4979 14.12622444705294
SWISSCUBE               
1 35932U 09051B   22287.05143320  .00001002  00000+0  23366-3 0  9991
2 35932  98.5520 146.2238 0008516  48.4855 311.7072 14.57010201693362
BEESAT-1                
1 35933U 09051C   22287.34920188  .00000892  00000+0  20921-3 0  9999
2 35933  98.5454 148.0733 0006801  59.8338 300.3533 14.57009183693482
ITUPSAT1                
1 35935U 09051E   22287.50842593  .00000858  00000+0  20539-3 0  9999
2 35935  98.5554 148.2604 0009134  61.4586 298.7529 14.56108101693204
XIWANG-1 (HOPE-1)       
1 36122U 09072B   22287.44447061 -.00000046  00000+0 -84818-5 0  9998
2 36122 100.1996 254.5055 0008165  69.0060 291.1927 13.16372856616465
CARTOSAT-2B             
1 36795U 10035A   22287.69137167  .00001249  00000+0  17742-3 0  9999
2 36795  97.9479 346.7038 0012721 214.9240 145.1130 14.78649828661682
TISAT 1                 
1 36799U 10035E   22287.13525223  .00004046  00000+0  39011-3 0  9997
2 36799  98.1666 142.2182 0012926  67.9000 292.3589 14.93447211665476
FENGYUN 3B              
1 37214U 10059A   22287.84409612  .00000066  00000+0  58714-4 0  9997
2 37214  99.0948 295.9505 0022543  21.0775 339.1323 14.14269239617831
JUGNU                   
1 37839U 11058B   22287.00525787  .00000520  00000+0  13448-3 0  9999
2 37839  19.9599 176.3825 0018830  24.3760  94.5906 14.12817865568924
SRMSAT                  
1 37841U 11058D   22287.60377500  .00000494  00000+0  12648-3 0  9997
2 37841  19.9716 254.6883 0011810 212.2898 303.8462 14.10782208568319
M-CUBED & EXP-1 PRIME   
1 37855U 11061F   22287.44673121  .00016694  00000+0  68936-3 0  9996
2 37855 101.7212 109.8332 0146651  65.1230 296.5152 15.14829569599238
HORYU-2                 
1 38340U 12025D   22287.45967333  .00002548  00000+0  36913-3 0  9992
2 38340  98.1870   7.6049 0010948 200.7019 159.3748 14.76953512549806
METOP-B                 
1 38771U 12049A   22287.81076562  .00000140  00000+0  84233-4 0  9996
2 38771  98.7161 345.8304 0001608  76.1751  70.9685 14.21482577522688
SARAL                   
1 39086U 13009A   22287.51819695  .00000138  00000+0  67629-4 0  9999
2 39086  98.5486 111.4083 0000287  28.0512 332.0687 14.32036247503527
AAUSAT 3                
1 39087U 13009B   22286.29074395  .00000946  00000+0  33798-3 0  9990
2 39087  98.3911 122.8584 0011598 276.6672  83.3210 14.36285646504494
STRAND-1                
1 39090U 13009E   22287.50546308  .00000353  00000+0  13795-3 0  9994
2 39090  98.3980 122.5137 0007904 278.6145  81.4145 14.35344756504479
BRITE-AUSTRIA           
1 39091U 13009F   22287.49213386  .00000218  00000+0  91058-4 0  9999
2 39091  98.4000 121.6877 0009348 285.7328  74.2826 14.35312470504509
UNIBRITE                
1 39092U 13009G   22287.52451443  .00000224  00000+0  93397-4 0  9997
2 39092  98.4035 121.5039 0008238 280.6539  79.3719 14.35183544504462
SOMP                    
1 39134U 13015E   22287.46415621  .00036223  00000+0  11416-2 0  9990
2 39134  64.8620  30.4343 0034225 263.7620  95.9614 15.32143532525440
BEESAT-3                
1 39135U 13015F   22287.48972393  .00025973  00000+0  97611-3 0  9999
2 39135  64.8660  69.4711 0038681 266.0017  93.6692 15.26409470524261
BEESAT-2                
1 39136U 13015G   22287.48811076  .00022708  00000+0  89762-3 0  9991
2 39136  64.8746  78.3832 0023601 293.0020  66.8620 15.25233551524054
NEE-01 PEGASO           
1 39151U 13018B   22287.55259522  .00002591  00000+0  33877-3 0  9995
2 39151  97.9979  32.8657 0015786 226.0848 133.9062 14.81241235511304
CUBEBUG-1 (CAPITAN BETO)
1 39153U 13018D   22287.29235870  .00002655  00000+0  34086-3 0  9992
2 39153  98.0219  37.4933 0015714 221.2576 138.7450 14.81990743511353
